GLOBALSTAR M067         
1 32263U 07048A   25088.91765941 -.00000057  00000+0  30167-3 0  9992
2 32263  51.9715 267.8825 0001464 139.6428  10.0640 12.40669258799898
GLOBALSTAR M070         
1 32264U 07048B   25088.71008815 -.00000068  00000+0  19786-3 0  9997
2 32264  51.9778  10.6218 0000512  52.4819 337.9689 12.62314671804618
GLOBALSTAR M066         
1 32265U 07048C   25088.91172315 -.00000083  00000+0  10298-3 0  9993
2 32265  51.9630 255.0208 0002063  80.8225  76.0430 12.35252468806442
GLOBALSTAR M068         
1 32266U 07048D   25088.28373972 -.00000050  00000+0  29745-3 0  9997
2 32266  51.9875 185.8287 0000385 348.1994  46.8895 12.62818326807463
GLOBALSTAR M079         
1 37188U 10054A   25088.82830250 -.00000089  00000+0  82053-4 0  9997
2 37188  52.0064  21.3657 0000791  87.4380 305.4026 12.62272177667115
GLOBALSTAR M074         
1 37189U 10054B   25088.24772828 -.00000093  00000+0  62308-4 0  9996
2 37189  52.0039  22.4694 0000386  85.7790  66.1790 12.62267504666966
GLOBALSTAR M076         
1 37190U 10054C   25088.27489838 -.00000092  00000+0  63754-4 0  9992
2 37190  52.0055  22.5458 0000623 104.3296  54.1864 12.62260108666689
GLOBALSTAR M077         
1 37191U 10054D   25088.10149994 -.00000058  00000+0  25488-3 0  9994
2 37191  52.0096 339.9140 0000693  82.5146  65.3579 12.62272446667031
